{
  "type": "FeatureCollection",
  "features": [
    {
      "type": "Feature",
      "properties": {
        "norad_id": 24876,
        "name": "GPS BIIR-2  (PRN 13)",
        "group": "gnss",
        "lat": 3.7359315428858797,
        "lon": -76.5650061528762,
        "alt_km": 20302.60061774265,
        "timestamp": "2025-12-09T23:33:24.094837+00:00",
        "meta_object_name": "GPS BIIR-2  (PRN 13)",
        "meta_object_id": "1997-035A",
        "meta_epoch": "2025-12-09T05:49:21.634464",
        "meta_mean_motion": 2.00563541,
        "meta_eccentricity": 0.00967453,
        "meta_inclination": 55.8936,
        "meta_ra_of_asc_node": 106.0057,
        "meta_arg_of_pericenter": 57.0125,
        "meta_mean_anomaly": 303.8888,
        "meta_ephemeris_type": 0,
        "meta_classification_type": "U",
        "meta_norad_cat_id": 24876,
        "meta_element_set_no": 999,
        "meta_rev_at_epoch": 20814,
        "meta_bstar": 0,
        "meta_mean_motion_dot": 2e-07,
        "meta_mean_motion_ddot": 0,
        "tle_line1": "1 24876U 97035A   25343.24261151  .00000020  00000+0  00000+0 0  9990",
        "tle_line2": "2 24876  55.8936 106.0057 0096745  57.0125 303.8888  2.00563541208144"
      },
      "geometry": {
        "type": "Point",
        "coordinates": [
          -76.5650061528762,
          3.7359315428858797
        ]
      }
    },
    {
      "type": "Feature",
      "properties": {
        "norad_id": 26360,
        "name": "GPS BIIR-4  (PRN 20)",
        "group": "gnss",
        "lat": -54.88895014565015,
        "lon": -69.12208645624939,
        "alt_km": 20093.80984174566,
        "timestamp": "2025-12-09T23:33:24.094889+00:00",
        "meta_object_name": "GPS BIIR-4  (PRN 20)",
        "meta_object_id": "2000-025A",
        "meta_epoch": "2025-12-09T04:14:58.003872",
        "meta_mean_motion": 2.00567914,
        "meta_eccentricity": 0.00388478,
        "meta_inclination": 55.0431,
        "meta_ra_of_asc_node": 26.982,
        "meta_arg_of_pericenter": 241.6461,
        "meta_mean_anomaly": 163.8162,
        "meta_ephemeris_type": 0,
        "meta_classification_type": "U",
        "meta_norad_cat_id": 26360,
        "meta_element_set_no": 999,
        "meta_rev_at_epoch": 18746,
        "meta_bstar": 0,
        "meta_mean_motion_dot": -9.2e-07,
        "meta_mean_motion_ddot": 0,
        "tle_line1": "1 26360U 00025A   25343.17706023 -.00000092  00000+0  00000+0 0  9997",
        "tle_line2": "2 26360  55.0431  26.9820 0038847 241.6461 163.8162  2.00567914187465"
      },
      "geometry": {
        "type": "Point",
        "coordinates": [
          -69.12208645624939,
          -54.88895014565015
        ]
      }
    },
    {
      "type": "Feature",
      "properties": {
        "norad_id": 26407,
        "name": "GPS BIIR-5  (PRN 22)",
        "group": "gnss",
        "lat": 51.74621748064466,
        "lon": -20.390834078131455,
        "alt_km": 20497.978173146217,
        "timestamp": "2025-12-09T23:33:24.094909+00:00",
        "meta_object_name": "GPS BIIR-5  (PRN 22)",
        "meta_object_id": "2000-040A",
        "meta_epoch": "2025-12-09T01:51:39.036096",
        "meta_mean_motion": 2.00567849,
        "meta_eccentricity": 0.01262118,
        "meta_inclination": 54.8916,
        "meta_ra_of_asc_node": 222.7147,
        "meta_arg_of_pericenter": 301.7415,
        "meta_mean_anomaly": 231.4474,
        "meta_ephemeris_type": 0,
        "meta_classification_type": "U",
        "meta_norad_cat_id": 26407,
        "meta_element_set_no": 999,
        "meta_rev_at_epoch": 18613,
        "meta_bstar": 0,
        "meta_mean_motion_dot": 8e-08,
        "meta_mean_motion_ddot": 0,
        "tle_line1": "1 26407U 00040A   25343.07753514  .00000008  00000+0  00000+0 0  9998",
        "tle_line2": "2 26407  54.8916 222.7147 0126211 301.7415 231.4474  2.00567849186138"
      },
      "geometry": {
        "type": "Point",
        "coordinates": [
          -20.390834078131455,
          51.74621748064466
        ]
      }
    },
    {
      "type": "Feature",
      "properties": {
        "norad_id": 27663,
        "name": "GPS BIIR-8  (PRN 16)",
        "group": "gnss",
        "lat": -45.96896432423971,
        "lon": 89.07481438171096,
        "alt_km": 20572.674689455718,
        "timestamp": "2025-12-09T23:33:24.094939+00:00",
        "meta_object_name": "GPS BIIR-8  (PRN 16)",
        "meta_object_id": "2003-005A",
        "meta_epoch": "2025-12-09T15:52:30.360000",
        "meta_mean_motion": 2.00571029,
        "meta_eccentricity": 0.0147333,
        "meta_inclination": 54.924,
        "meta_ra_of_asc_node": 222.5008,
        "meta_arg_of_pericenter": 51.758,
        "meta_mean_anomaly": 318.9168,
        "meta_ephemeris_type": 0,
        "meta_classification_type": "U",
        "meta_norad_cat_id": 27663,
        "meta_element_set_no": 999,
        "meta_rev_at_epoch": 16751,
        "meta_bstar": 0,
        "meta_mean_motion_dot": 3e-08,
        "meta_mean_motion_ddot": 0,
        "tle_line1": "1 27663U 03005A   25343.66146250  .00000003  00000+0  00000+0 0  9990",
        "tle_line2": "2 27663  54.9240 222.5008 0147333  51.7580 318.9168  2.00571029167518"
      },
      "geometry": {
        "type": "Point",
        "coordinates": [
          89.07481438171096,
          -45.96896432423971
        ]
      }
    },
    {
      "type": "Feature",
      "properties": {
        "norad_id": 28190,
        "name": "GPS BIIR-11 (PRN 19)",
        "group": "gnss",
        "lat": 31.506243976998746,
        "lon": -51.27187455430359,
        "alt_km": 20353.512892730258,
        "timestamp": "2025-12-09T23:33:24.094956+00:00",
        "meta_object_name": "GPS BIIR-11 (PRN 19)",
        "meta_object_id": "2004-009A",
        "meta_epoch": "2025-12-09T02:41:41.936352",
        "meta_mean_motion": 2.00560834,
        "meta_eccentricity": 0.01083049,
        "meta_inclination": 54.989,
        "meta_ra_of_asc_node": 283.3651,
        "meta_arg_of_pericenter": 167.5856,
        "meta_mean_anomaly": 325.415,
        "meta_ephemeris_type": 0,
        "meta_classification_type": "U",
        "meta_norad_cat_id": 28190,
        "meta_element_set_no": 999,
        "meta_rev_at_epoch": 15913,
        "meta_bstar": 0,
        "meta_mean_motion_dot": -5.3e-07,
        "meta_mean_motion_ddot": 0,
        "tle_line1": "1 28190U 04009A   25343.11229093 -.00000053  00000+0  00000+0 0  9994",
        "tle_line2": "2 28190  54.9890 283.3651 0108304 167.5856 325.4150  2.00560834159136"
      },
      "geometry": {
        "type": "Point",
        "coordinates": [
          -51.27187455430359,
          31.506243976998746
        ]
      }
    },
    {
      "type": "Feature",
      "properties": {
        "norad_id": 28474,
        "name": "GPS BIIR-13 (PRN 02)",
        "group": "gnss",
        "lat": 53.58044035583595,
        "lon": 82.29137950562212,
        "alt_km": 20576.588428392683,
        "timestamp": "2025-12-09T23:33:24.094970+00:00",
        "meta_object_name": "GPS BIIR-13 (PRN 02)",
        "meta_object_id": "2004-045A",
        "meta_epoch": "2025-12-09T12:22:18.068160",
        "meta_mean_motion": 2.00569281,
        "meta_eccentricity": 0.01706994,
        "meta_inclination": 55.2423,
        "meta_ra_of_asc_node": 332.5354,
        "meta_arg_of_pericenter": 309.1094,
        "meta_mean_anomaly": 175.0293,
        "meta_ephemeris_type": 0,
        "meta_classification_type": "U",
        "meta_norad_cat_id": 28474,
        "meta_element_set_no": 999,
        "meta_rev_at_epoch": 15462,
        "meta_bstar": 0,
        "meta_mean_motion_dot": -8.4e-07,
        "meta_mean_motion_ddot": 0,
        "tle_line1": "1 28474U 04045A   25343.51548690 -.00000084  00000+0  00000+0 0  9994",
        "tle_line2": "2 28474  55.2423 332.5354 0170699 309.1094 175.0293  2.00569281154629"
      },
      "geometry": {
        "type": "Point",
        "coordinates": [
          82.29137950562212,
          53.58044035583595
        ]
      }
    },
    {
      "type": "Feature",
      "properties": {
        "norad_id": 28874,
        "name": "GPS BIIRM-1 (PRN 17)",
        "group": "gnss",
        "lat": 45.60115281656757,
        "lon": -33.66418421950618,
        "alt_km": 20383.947487034275,
        "timestamp": "2025-12-09T23:33:24.094984+00:00",
        "meta_object_name": "GPS BIIRM-1 (PRN 17)",
        "meta_object_id": "2005-038A",
        "meta_epoch": "2025-12-09T01:52:55.801632",
        "meta_mean_motion": 2.0057855,
        "meta_eccentricity": 0.01317498,
        "meta_inclination": 55.0352,
        "meta_ra_of_asc_node": 280.8483,
        "meta_arg_of_pericenter": 293.4065,
        "meta_mean_anomaly": 193.8993,
        "meta_ephemeris_type": 0,
        "meta_classification_type": "U",
        "meta_norad_cat_id": 28874,
        "meta_element_set_no": 999,
        "meta_rev_at_epoch": 14802,
        "meta_bstar": 0,
        "meta_mean_motion_dot": -5e-07,
        "meta_mean_motion_ddot": 0,
        "tle_line1": "1 28874U 05038A   25343.07842363 -.00000050  00000+0  00000+0 0  9999",
        "tle_line2": "2 28874  55.0352 280.8483 0131749 293.4065 193.8993  2.00578550148027"
      },
      "geometry": {
        "type": "Point",
        "coordinates": [
          -33.66418421950618,
          45.60115281656757
        ]
      }
    }
  ]
}